NORAD_CAT_ID,OBJECT_NAME,OBJECT_TYPE,EPOCH,MEAN_MOTION,ECCENTRICITY,INCLINATION,RA_OF_ASC_NODE,ARG_OF_PERICENTER,MEAN_ANOMALY,BSTAR,MEAN_MOTION_DOT,MEAN_MOTION_DDOT,TLE_LINE0,TLE_LINE1,TLE_LINE2,SEMIMAJOR_AXIS,PERIOD,APOGEE,PERIGEE,DECAYED
53172.0,STARLINK-4299,PAYLOAD,2024-04-13 04:33:57,15.08837459,0.0001313,53.2192,41.2528,102.3554,257.7585,0.00011324,1.515e-05,0.0,0 STARLINK-4299,1 53172U 22083AS  24104.19024671  .00001515  00000-0  11324-3 0  9990,2 53172  53.2192  41.2528 0001313 102.3554 257.7585 15.08837459 97063,6917.888,95.438,540.661,538.845,0.0
53172.0,STARLINK-4299,PAYLOAD,2024-04-14 04:24:44,15.08842804,0.0001278,53.2195,36.7916,94.7206,265.3933,0.00011172,1.491e-05,0.0,0 STARLINK-4299,1 53172U 22083AS  24105.18384615  .00001491  00000-0  11172-3 0  9991,2 53172  53.2195  36.7916 0001278  94.7206 265.3933 15.08842804 96571,6917.872,95.437,540.621,538.853,0.0
53172.0,STARLINK-4299,PAYLOAD,2024-04-15 04:15:31,15.08847479,0.0001426,53.2205,32.3285,96.5294,263.5861,0.00012559,1.712e-05,0.0,0 STARLINK-4299,1 53172U 22083AS  24106.17744357  .00001712  00000-0  12559-3 0  9990,2 53172  53.2205  32.3285 0001426  96.5294 263.5861 15.08847479 97367,6917.858,95.437,540.709,538.736,0.0
53172.0,STARLINK-4299,PAYLOAD,2024-04-16 04:06:18,15.08839217,0.0002123,53.2196,27.8682,80.5226,279.6006,1.8229e-05,2e-08,0.0,0 STARLINK-4299,1 53172U 22083AS  24107.17104833  .00000002  00000-0  18229-4 0  9992,2 53172  53.2196  27.8682 0002123  80.5226 279.6006 15.08839217 97516,6917.883,95.438,541.216,538.279,0.0
53172.0,STARLINK-4299,PAYLOAD,2024-04-16 12:03:13,15.08858324,0.0001561,53.2207,26.3861,78.1906,281.9261,0.00028679,4.281e-05,0.0,0 STARLINK-4299,1 53172U 22083AS  24107.50223634  .00004281  00000-0  28679-3 0  9992,2 53172  53.2207  26.3861 0001561  78.1906 281.9261 15.08858324 97569,6917.824,95.436,540.769,538.61,0.0
53172.0,STARLINK-4299,PAYLOAD,2024-04-17 03:57:03,15.08888128,0.0001881,53.2189,23.4109,72.6687,287.4511,0.0007328,0.00011409,0.0,0 STARLINK-4299,1 53172U 22083AS  24108.16461945  .00011409  00000-0  73280-3 0  9992,2 53172  53.2189  23.4109 0001881  72.6687 287.4511 15.08888128 97666,6917.733,95.435,540.9,538.297,0.0
53172.0,STARLINK-4299,PAYLOAD,2024-04-17 21:26:20,15.08811273,0.0001189,53.2178,20.1391,84.5847,275.5281,-0.00036099,-6.024e-05,0.0,0 STARLINK-4299,1 53172U 22083AS  24108.89329396 -.00006024  00000-0 -36099-3 0  9991,2 53172  53.2178  20.1391 0001189  84.5847 275.5281 15.08811273 97133,6917.968,95.439,540.656,539.011,0.0
53172.0,STARLINK-4299,PAYLOAD,2024-04-18 03:47:53,15.08824256,0.0001373,53.2194,18.9481,86.1601,273.9548,-0.00018433,-3.219e-05,0.0,0 STARLINK-4299,1 53172U 22083AS  24109.15825256 -.00003219  00000-0 -18433-3 0  9992,2 53172  53.2194  18.9481 0001373  86.1601 273.9548 15.08824256 97815,6917.929,95.439,540.743,538.844,0.0
53172.0,STARLINK-4299,PAYLOAD,2024-04-18 08:34:02,15.08837568,0.0001444,53.2182,18.0594,114.8363,245.2779,0.0006272,9.707e-05,0.0,0 STARLINK-4299,1 53172U 22083AS  24109.35696952  .00009707  00000-0  62720-3 0  9997,2 53172  53.2182  18.0594 0001444 114.8363 245.2779 15.08837568 97842,6917.888,95.438,540.752,538.754,0.0
53172.0,STARLINK-4299,PAYLOAD,2024-04-18 21:17:08,15.08822235,0.0001646,53.2188,15.6739,107.2877,252.8295,0.001922,0.00030418,0.0,0 STARLINK-4299,1 53172U 22083AS  24109.88690208  .00030418  00000-0  19220-2 0  9992,2 53172  53.2188  15.6739 0001646 107.2877 252.8295 15.08822235 97923,6917.935,95.439,540.938,538.661,0.0
53172.0,STARLINK-4299,PAYLOAD,2024-04-18 22:52:31,15.08828972,0.0001558,53.2195,15.3779,97.746,262.3709,0.0022662,0.00035952,0.0,0 STARLINK-4299,1 53172U 22083AS  24109.95314351  .00035952  00000-0  22662-2 0  9994,2 53172  53.2195  15.3779 0001558  97.7460 262.3709 15.08828972 97295,6917.914,95.438,540.857,538.701,0.0
53172.0,STARLINK-4299,PAYLOAD,2024-04-19 03:38:40,15.08847308,0.0001542,53.2195,14.4852,101.1599,258.9566,0.0013277,0.0002091,0.0,0 STARLINK-4299,1 53172U 22083AS  24110.15185957  .00020910  00000-0  13277-2 0  9996,2 53172  53.2195  14.4852 0001542 101.1599 258.9566 15.08847308 97323,6917.858,95.437,540.79,538.656,0.0
53172.0,STARLINK-4299,PAYLOAD,2024-04-19 22:43:17,15.08881612,0.0001521,53.219,10.9165,101.7706,258.3456,0.0014871,0.00023485,0.0,0 STARLINK-4299,1 53172U 22083AS  24110.94672818  .00023485  00000-0  14871-2 0  9991,2 53172  53.2190  10.9165 0001521 101.7706 258.3456 15.08881612 97440,6917.753,95.435,540.67,538.566,0.0
53172.0,STARLINK-4299,PAYLOAD,2024-04-20 03:29:26,15.08881235,0.000152,53.219,10.0243,102.7615,257.3548,0.0011191,0.00017587,0.0,0 STARLINK-4299,1 53172U 22083AS  24111.14544378  .00017587  00000-0  11191-2 0  9991,2 53172  53.2190  10.0243 0001520 102.7615 257.3548 15.08881235 98114,6917.754,95.435,540.671,538.568,0.0
53172.0,STARLINK-4299,PAYLOAD,2024-04-20 20:58:40,15.08839089,0.0001483,53.2186,6.7551,97.7682,262.3479,-0.00083074,-0.00013484,0.0,0 STARLINK-4299,1 53172U 22083AS  24111.87407815 -.00013484  00000-0 -83074-3 0  9999,2 53172  53.2186   6.7551 0001483  97.7682 262.3479 15.08839089 98229,6917.883,95.438,540.774,538.722,0.0
53172.0,STARLINK-4299,PAYLOAD,2024-04-21 01:44:50,15.08818313,0.0001629,53.2182,5.8651,102.2521,257.8653,-0.0010246,-0.00016548,0.0,0 STARLINK-4299,1 53172U 22083AS  24112.07280669 -.00016548  00000-0 -10246-2 0  9992,2 53172  53.2182   5.8651 0001629 102.2521 257.8653 15.08818313 98255,6917.947,95.439,540.939,538.685,0.0
53172.0,STARLINK-4299,PAYLOAD,2024-04-21 20:49:29,15.08813919,0.0001348,53.2174,2.2976,101.4222,258.6922,0.0006223,9.623e-05,0.0,0 STARLINK-4299,1 53172U 22083AS  24112.86770159  .00009623  00000-0  62230-3 0  9992,2 53172  53.2174   2.2976 0001348 101.4222 258.6922 15.08813919 98372,6917.96,95.439,540.758,538.893,0.0
53172.0,STARLINK-4299,PAYLOAD,2024-04-21 22:24:52,15.08820498,0.0001675,53.2174,2.0007,89.6104,270.508,0.00099839,0.00015629,0.0,0 STARLINK-4299,1 53172U 22083AS  24112.93394365  .00015629  00000-0  99839-3 0  9999,2 53172  53.2174   2.0007 0001675  89.6104 270.5080 15.08820498 97742,6917.94,95.439,540.964,538.646,0.0
53172.0,STARLINK-4299,PAYLOAD,2024-04-22 01:35:38,15.08845703,0.0001636,53.2183,1.4066,100.6495,259.4682,0.0019716,0.00031234,0.0,0 STARLINK-4299,1 53172U 22083AS  24113.06642179  .00031234  00000-0  19716-2 0  9998,2 53172  53.2183   1.4066 0001636 100.6495 259.4682 15.08845703 98408,6917.863,95.437,540.86,538.596,0.0
53172.0,STARLINK-4299,PAYLOAD,2024-04-22 20:40:16,15.08852847,0.0003186,53.2179,357.839,158.2705,201.8423,0.0014365,0.00022657,0.0,0 STARLINK-4299,1 53172U 22083AS  24113.86129887  .00022657  00000-0  14365-2 0  9996,2 53172  53.2179 357.8390 0003186 158.2705 201.8423 15.08852847 98520,6917.841,95.437,541.91,537.502,0.0
53172.0,STARLINK-4299,PAYLOAD,2024-04-22 22:15:39,15.08848874,0.0002702,53.2178,357.5417,159.758,200.352,0.0011199,0.00017585,0.0,0 STARLINK-4299,1 53172U 22083AS  24113.92753895  .00017585  00000-0  11199-2 0  9991,2 53172  53.2178 357.5417 0002702 159.7580 200.3520 15.08848874 97892,6917.853,95.437,541.587,537.849,0.0
53172.0,STARLINK-4299,PAYLOAD,2024-04-23 01:26:26,15.08839043,0.0001102,53.2168,356.9461,106.6199,253.4914,0.00059403,9.178e-05,0.0,0 STARLINK-4299,1 53172U 22083AS  24114.06002453  .00009178  00000-0  59403-3 0  9994,2 53172  53.2168 356.9461 0001102 106.6199 253.4914 15.08839043 98551,6917.883,95.438,540.511,538.986,0.0
53172.0,STARLINK-4299,PAYLOAD,2024-04-23 20:31:03,15.08838012,0.0001288,53.2173,353.373,105.539,254.5744,0.00026733,3.969e-05,0.0,0 STARLINK-4299,1 53172U 22083AS  24114.85490683  .00003969  00000-0  26733-3 0  9999,2 53172  53.2173 353.3730 0001288 105.5390 254.5744 15.08838012 98674,6917.886,95.438,540.642,538.86,0.0
53172.0,STARLINK-4299,PAYLOAD,2024-04-23 22:06:27,15.08840707,0.0001506,53.2187,353.0781,80.5553,279.561,0.00027373,4.071e-05,0.0,0 STARLINK-4299,1 53172U 22083AS  24114.92114813  .00004071  00000-0  27373-3 0  9991,2 53172  53.2187 353.0781 0001506  80.5553 279.5610 15.08840707 98042,6917.878,95.438,540.785,538.701,0.0
53172.0,STARLINK-4299,PAYLOAD,2024-04-24 01:17:13,15.08846763,0.0001882,53.2187,352.4797,87.1086,273.0122,0.00039207,5.958e-05,0.0,0 STARLINK-4299,1 53172U 22083AS  24115.05362551  .00005958  00000-0  39207-3 0  9994,2 53172  53.2187 352.4797 0001882  87.1086 273.0122 15.08846763 98060,6917.86,95.437,541.027,538.423,0.0
53172.0,STARLINK-4299,PAYLOAD,2024-04-24 21:57:13,15.08848744,0.0001578,53.2186,348.6133,113.3728,246.743,0.00021114,3.075e-05,0.0,0 STARLINK-4299,1 53172U 22083AS  24115.91474084  .00003075  00000-0  21114-3 0  9990,2 53172  53.2186 348.6133 0001578 113.3728 246.7430 15.08848744 98191,6917.854,95.437,540.81,538.627,0.0
53172.0,STARLINK-4299,PAYLOAD,2024-04-25 21:48:00,15.08859547,0.0001665,53.2175,344.1584,65.8265,294.2901,0.00022972,3.372e-05,0.0,0 STARLINK-4299,1 53172U 22083AS  24116.90833340  .00003372  00000-0  22972-3 0  9997,2 53172  53.2175 344.1584 0001665  65.8265 294.2901 15.08859547 98345,6917.821,95.436,540.837,538.534,0.0
53172.0,STARLINK-4299,PAYLOAD,2024-04-27 00:49:33,15.08836934,9.58e-05,53.217,339.1027,88.5172,271.593,-7.5814e-05,-1.494e-05,0.0,0 STARLINK-4299,1 53172U 22083AS  24118.03441514 -.00001494  00000-0 -75814-4 0  9990,2 53172  53.2170 339.1027 0000958  88.5172 271.5930 15.08836934 99154,6917.89,95.438,540.417,539.092,0.0
53172.0,STARLINK-4299,PAYLOAD,2024-04-27 13:32:34,15.08910323,0.0001106,53.217,336.7258,57.9862,302.1238,0.0009708,0.00015226,0.0,0 STARLINK-4299,1 53172U 22083AS  24118.56429110  .00015226  00000-0  97080-3 0  9990,2 53172  53.2170 336.7258 0001106  57.9862 302.1238 15.08910323 99231,6917.665,95.433,540.296,538.765,0.0
53172.0,STARLINK-4299,PAYLOAD,2024-04-27 21:29:34,15.08809277,0.0001582,53.217,335.2379,62.2551,297.8602,-0.00067812,-0.00011055,0.0,0 STARLINK-4299,1 53172U 22083AS  24118.89553559 -.00011055  00000-0 -67812-3 0  9999,2 53172  53.2170 335.2379 0001582  62.2551 297.8602 15.08809277 99286,6917.974,95.439,540.934,538.745,0.0
